LANDSAT 9               
1 49260U 21088A   24074.75072404  .00000556  00000+0  13333-3 0  9997
2 49260  98.1969 145.9374 0001194  76.8726 283.2606 14.57111760130946
